[{"OBJECT_NAME":"OBJECT L","OBJECT_ID":"2023-085L","EPOCH":"2026-03-09T23:02:21.999840","MEAN_MOTION":15.29079976,"ECCENTRICITY":0.0005428,"INCLINATION":97.486,"RA_OF_ASC_NODE":178.8598,"ARG_OF_PERICENTER":50.8528,"MEAN_ANOMALY":309.3193,"EPHEMERIS_TYPE":0,"CLASSIFICATION_TYPE":"U","NORAD_CAT_ID":57014,"ELEMENT_SET_NO":999,"REV_AT_EPOCH":15144,"BSTAR":0.00063462603,"MEAN_MOTION_DOT":0.00017871,"MEAN_MOTION_DDOT":0},{"OBJECT_NAME":"STARLINK-31186","OBJECT_ID":"2024-038H","EPOCH":"2026-03-09T06:49:36.011712","MEAN_MOTION":15.27572946,"ECCENTRICITY":0.00011635,"INCLINATION":43.0056,"RA_OF_ASC_NODE":29.5244,"ARG_OF_PERICENTER":274.0063,"MEAN_ANOMALY":86.0656,"EPHEMERIS_TYPE":0,"CLASSIFICATION_TYPE":"U","NORAD_CAT_ID":59030,"ELEMENT_SET_NO":999,"REV_AT_EPOCH":11469,"BSTAR":-4.3729037e-5,"MEAN_MOTION_DOT":-1.465e-5,"MEAN_MOTION_DDOT":0}]
